{"type": "FeatureCollection", "features": [ {"type": "Feature", "properties": {"norad_id": 41774, "name": "SKYSAT-C3", "group": "resource", "lat": -72.97463987262464, "lon": 42.42986078885895, "alt_km": 441.8828291219288, "timestamp": "2025-12-11T05:00:25.968469+00:00", "meta": {"OBJECT_NAME": "SKYSAT-C3", "OBJECT_ID": "2016-058E", "EPOCH": "2025-12-10T19:59:53.945664", "MEAN_MOTION": 15.44284919, "ECCENTRICITY": 0.00016396, "INCLINATION": 96.9301, "RA_OF_ASC_NODE": 18.6678, "ARG_OF_PERICENTER": 106.607, "MEAN_ANOMALY": 253.536, "EPHEMERIS_TYPE": 0, "CLASSIFICATION_TYPE": "U", "NORAD_CAT_ID": 41774, "ELEMENT_SET_NO": 999, "REV_AT_EPOCH": 51696, "BSTAR": 0.00057044033, "MEAN_MOTION_DOT": 0.00026221, "MEAN_MOTION_DDOT": 0}, "tle": {"line1": "1 41774U 16058E   25344.83326326  .00026221  00000+0  57044-3 0  9999", "line2": "2 41774  96.9301  18.6678 0001639 106.6070 253.5360 15.44284919516966"}}, "geometry": {"type": "Point", "coordinates": [42.42986078885895, -72.97463987262464]}}, {"type": "Feature", "properties": {"norad_id": 41785, "name": "ALSAT 1B", "group": "resource", "lat": -2.0362461700234835, "lon": 176.7855684372166, "alt_km": 655.7375344999364, "timestamp": "2025-12-11T05:00:25.968478+00:00", "meta": {"OBJECT_NAME": "ALSAT 1B", "OBJECT_ID": "2016-059C", "EPOCH": "2025-12-10T23:17:25.271232", "MEAN_MOTION": 14.72072248, "ECCENTRICITY": 0.00106608, "INCLINATION": 97.7814, "RA_OF_ASC_NODE": 356.8362, "ARG_OF_PERICENTER": 108.093, "MEAN_ANOMALY": 252.144, "EPHEMERIS_TYPE": 0, "CLASSIFICATION_TYPE": "U", "NORAD_CAT_ID": 41785, "ELEMENT_SET_NO": 999, "REV_AT_EPOCH": 49288, "BSTAR": 0.00011632241, "MEAN_MOTION_DOT": 6.85e-06, "MEAN_MOTION_DDOT": 0}, "tle": {"line1": "1 41785U 16059C   25344.97043138  .00000685  00000+0  11632-3 0  9993", "line2": "2 41785  97.7814 356.8362 0010660 108.0930 252.1440 14.72072248492886"}}, "geometry": {"type": "Point", "coordinates": [176.7855684372166, -2.0362461700234835]}}, {"type": "Feature", "properties": {"norad_id": 41787, "name": "PATHFINDER 1", "group": "resource", "lat": -71.86553270882621, "lon": 12.842489495927104, "alt_km": 696.7635445671876, "timestamp": "2025-12-11T05:00:25.968488+00:00", "meta": {"OBJECT_NAME": "PATHFINDER 1", "OBJECT_ID": "2016-059E", "EPOCH": "2025-12-10T17:53:12.304320", "MEAN_MOTION": 14.67315559, "ECCENTRICITY": 0.00300544, "INCLINATION": 97.8139, "RA_OF_ASC_NODE": 347.6114, "ARG_OF_PERICENTER": 87.2578, "MEAN_ANOMALY": 273.2067, "EPHEMERIS_TYPE": 0, "CLASSIFICATION_TYPE": "U", "NORAD_CAT_ID": 41787, "ELEMENT_SET_NO": 999, "REV_AT_EPOCH": 49207, "BSTAR": 0.0002356788, "MEAN_MOTION_DOT": 1.292e-05, "MEAN_MOTION_DDOT": 0}, "tle": {"line1": "1 41787U 16059E   25344.74528130  .00001292  00000+0  23568-3 0  9996", "line2": "2 41787  97.8139 347.6114 0030054  87.2578 273.2067 14.67315559492076"}}, "geometry": {"type": "Point", "coordinates": [12.842489495927104, -71.86553270882621]}}, {"type": "Feature", "properties": {"norad_id": 41790, "name": "SCATSAT 1", "group": "resource", "lat": -35.511486038607046, "lon": -144.00728049183877, "alt_km": 633.9974405265084, "timestamp": "2025-12-11T05:00:25.968498+00:00", "meta": {"OBJECT_NAME": "SCATSAT 1", "OBJECT_ID": "2016-059H", "EPOCH": "2025-12-10T21:32:38.931648", "MEAN_MOTION": 14.78926535, "ECCENTRICITY": 0.00562002, "INCLINATION": 98.1464, "RA_OF_ASC_NODE": 41.5448, "ARG_OF_PERICENTER": 133.8153, "MEAN_ANOMALY": 226.7725, "EPHEMERIS_TYPE": 0, "CLASSIFICATION_TYPE": "U", "NORAD_CAT_ID": 41790, "ELEMENT_SET_NO": 999, "REV_AT_EPOCH": 7375, "BSTAR": 0.00034373421, "MEAN_MOTION_DOT": 2.547e-05, "MEAN_MOTION_DDOT": 0}, "tle": {"line1": "1 41790U 16059H   25344.89767282  .00002547  00000+0  34373-3 0  9999", "line2": "2 41790  98.1464  41.5448 0056200 133.8153 226.7725 14.78926535 73751"}}, "geometry": {"type": "Point", "coordinates": [-144.00728049183877, -35.511486038607046]}}, {"type": "Feature", "properties": {"norad_id": 41875, "name": "GOKTURK 1A", "group": "resource", "lat": 28.277682227084178, "lon": -126.82315988634005, "alt_km": 682.3909735254656, "timestamp": "2025-12-11T05:00:25.968509+00:00", "meta": {"OBJECT_NAME": "GOKTURK 1A", "OBJECT_ID": "2016-073A", "EPOCH": "2025-12-10T23:57:06.657408", "MEAN_MOTION": 14.62776193, "ECCENTRICITY": 0.00012522, "INCLINATION": 98.1425, "RA_OF_ASC_NODE": 237.3863, "ARG_OF_PERICENTER": 78.3831, "MEAN_ANOMALY": 281.7511, "EPHEMERIS_TYPE": 0, "CLASSIFICATION_TYPE": "U", "NORAD_CAT_ID": 41875, "ELEMENT_SET_NO": 999, "REV_AT_EPOCH": 48131, "BSTAR": 0.00016917795, "MEAN_MOTION_DOT": 8.16e-06, "MEAN_MOTION_DDOT": 0}, "tle": {"line1": "1 41875U 16073A   25344.99799372  .00000816  00000+0  16918-3 0  9997", "line2": "2 41875  98.1425 237.3863 0001252  78.3831 281.7511 14.62776193481316"}}, "geometry": {"type": "Point", "coordinates": [-126.82315988634005, 28.277682227084178]}}, {"type": "Feature", "properties": {"norad_id": 41877, "name": "RESOURCESAT-2A", "group": "resource", "lat": -54.89848222138731, "lon": 67.76861828158152, "alt_km": 826.3367836034895, "timestamp": "2025-12-11T05:00:25.968519+00:00", "meta": {"OBJECT_NAME": "RESOURCESAT-2A", "OBJECT_ID": "2016-074A", "EPOCH": "2025-12-10T22:30:46.172160", "MEAN_MOTION": 14.21597746, "ECCENTRICITY": 0.00011149, "INCLINATION": 98.7754, "RA_OF_ASC_NODE": 54.804, "ARG_OF_PERICENTER": 264.5592, "MEAN_ANOMALY": 95.5458, "EPHEMERIS_TYPE": 0, "CLASSIFICATION_TYPE": "U", "NORAD_CAT_ID": 41877, "ELEMENT_SET_NO": 999, "REV_AT_EPOCH": 46755, "BSTAR": 4.4868153e-05, "MEAN_MOTION_DOT": 5.4e-07, "MEAN_MOTION_DDOT": 0}, "tle": {"line1": "1 41877U 16074A   25344.93803440  .00000054  00000+0  44868-4 0  9996", "line2": "2 41877  98.7754  54.8040 0001114 264.5592  95.5458 14.21597746467559"}}, "geometry": {"type": "Point", "coordinates": [67.76861828158152, -54.89848222138731]}}, {"type": "Feature", "properties": {"norad_id": 41948, "name": "CARTOSAT-2D", "group": "resource", "lat": 46.243119442943, "lon": -129.42927153697184, "alt_km": 501.641778755441, "timestamp": "2025-12-11T05:00:25.968529+00:00", "meta": {"OBJECT_NAME": "CARTOSAT-2D", "OBJECT_ID": "2017-008A", "EPOCH": "2025-12-10T22:05:59.616960", "MEAN_MOTION": 15.19222942, "ECCENTRICITY": 0.00044413, "INCLINATION": 97.4383, "RA_OF_ASC_NODE": 42.4452, "ARG_OF_PERICENTER": 167.55, "MEAN_ANOMALY": 192.5845, "EPHEMERIS_TYPE": 0, "CLASSIFICATION_TYPE": "U", "NORAD_CAT_ID": 41948, "ELEMENT_SET_NO": 999, "REV_AT_EPOCH": 48899, "BSTAR": 0.00029227415, "MEAN_MOTION_DOT": 6.089e-05, "MEAN_MOTION_DDOT": 0}, "tle": {"line1": "1 41948U 17008A   25344.92082890  .00006089  00000+0  29227-3 0  9995", "line2": "2 41948  97.4383  42.4452 0004441 167.5500 192.5845 15.19222942488999"}}, "geometry": {"type": "Point", "coordinates": [-129.42927153697184, 46.243119442943]}}, {"type": "Feature", "properties": {"norad_id": 42063, "name": "SENTINEL-2B", "group": "resource", "lat": -41.57839427062469, "lon": -130.01390127257997, "alt_km": 796.0726371709461, "timestamp": "2025-12-11T05:00:25.968539+00:00", "meta": {"OBJECT_NAME": "SENTINEL-2B", "OBJECT_ID": "2017-013A", "EPOCH": "2025-12-10T22:56:15.505728", "MEAN_MOTION": 14.30814488, "ECCENTRICITY": 0.00011444, "INCLINATION": 98.5713, "RA_OF_ASC_NODE": 57.4262, "ARG_OF_PERICENTER": 93.9792, "MEAN_ANOMALY": 266.1522, "EPHEMERIS_TYPE": 0, "CLASSIFICATION_TYPE": "U", "NORAD_CAT_ID": 42063, "ELEMENT_SET_NO": 999, "REV_AT_EPOCH": 45772, "BSTAR": 7.3817572e-05, "MEAN_MOTION_DOT": 1.5e-06, "MEAN_MOTION_DDOT": 0}, "tle": {"line1": "1 42063U 17013A   25344.95573502  .00000150  00000+0  73818-4 0  9997", "line2": "2 42063  98.5713  57.4262 0001144  93.9792 266.1522 14.30814488457725"}}, "geometry": {"type": "Point", "coordinates": [-130.01390127257997, -41.57839427062469]}}, {"type": "Feature", "properties": {"norad_id": 42767, "name": "CARTOSAT-2E", "group": "resource", "lat": 43.73515013763637, "lon": 35.61688344387818, "alt_km": 505.86795033080034, "timestamp": "2025-12-11T05:00:25.968549+00:00", "meta": {"OBJECT_NAME": "CARTOSAT-2E", "OBJECT_ID": "2017-036C", "EPOCH": "2025-12-10T22:29:25.677600", "MEAN_MOTION": 15.19289612, "ECCENTRICITY": 0.00023091, "INCLINATION": 97.4556, "RA_OF_ASC_NODE": 42.5468, "ARG_OF_PERICENTER": 244.44, "MEAN_ANOMALY": 115.6596, "EPHEMERIS_TYPE": 0, "CLASSIFICATION_TYPE": "U", "NORAD_CAT_ID": 42767, "ELEMENT_SET_NO": 999, "REV_AT_EPOCH": 46956, "BSTAR": 0.0003156954, "MEAN_MOTION_DOT": 6.595e-05, "MEAN_MOTION_DDOT": 0}, "tle": {"line1": "1 42767U 17036C   25344.93710275  .00006595  00000+0  31570-3 0  9998", "line2": "2 42767  97.4556  42.5468 0002309 244.4400 115.6596 15.19289612469562"}}, "geometry": {"type": "Point", "coordinates": [35.61688344387818, 43.73515013763637]}}, {"type": "Feature", "properties": {"norad_id": 42920, "name": "FORMOSAT-5", "group": "resource", "lat": 65.53884087327697, "lon": -101.85413101259154, "alt_km": 722.9694536363459, "timestamp": "2025-12-11T05:00:25.968560+00:00", "meta": {"OBJECT_NAME": "FORMOSAT-5", "OBJECT_ID": "2017-049A", "EPOCH": "2025-12-10T21:52:03.351360", "MEAN_MOTION": 14.51003653, "ECCENTRICITY": 0.00099519, "INCLINATION": 98.2454, "RA_OF_ASC_NODE": 59.2664, "ARG_OF_PERICENTER": 301.7689, "MEAN_ANOMALY": 58.2536, "EPHEMERIS_TYPE": 0, "CLASSIFICATION_TYPE": "U", "NORAD_CAT_ID": 42920, "ELEMENT_SET_NO": 999, "REV_AT_EPOCH": 43937, "BSTAR": 0.0001086439, "MEAN_MOTION_DOT": 3.86e-06, "MEAN_MOTION_DDOT": 0}, "tle": {"line1": "1 42920U 17049A   25344.91114990  .00000386  00000+0  10864-3 0  9998", "line2": "2 42920  98.2454  59.2664 0009951 301.7689  58.2536 14.51003653439374"}}, "geometry": {"type": "Point", "coordinates": [-101.85413101259154, 65.53884087327697]}}]}